IRIDIUM 155             
1 43573U 18061E   24011.65553748  .00000423  00000+0  14412-3 0  9992
2 43573  86.3943  67.6112 0002303  88.1113 272.0346 14.34219058286142
IRIDIUM 154             
1 43574U 18061F   24011.70627753  .00000415  00000+0  14118-3 0  9991
2 43574  86.3947  67.6800 0002341  99.8467 260.2993 14.34219281286206
IRIDIUM 163             
1 43575U 18061G   24011.68724887  .00000740  00000+0  25729-3 0  9996
2 43575  86.3944  67.6307 0002288  99.2060 260.9395 14.34218439286172
IRIDIUM 156             
1 43576U 18061H   24011.66187875  .00000458  00000+0  15654-3 0  9997
2 43576  86.3945  67.6477 0001912  91.3965 268.7450 14.34218500286168
IRIDIUM 164             
1 43577U 18061J   24011.64285133  .00000490  00000+0  16784-3 0  9993
2 43577  86.3946  67.6820 0001896  96.7103 263.4309 14.34217439286206
IRIDIUM 159             
1 43578U 18061K   24011.68090716  .00000422  00000+0  14354-3 0  9995
2 43578  86.3943  67.6218 0002269  97.1189 263.0265 14.34218121286171
IRIDIUM 180             
1 43922U 19002A   24011.95947769  .00000441  00000+0  15050-3 0  9998
2 43922  86.3972   4.3802 0002217  92.7453 267.3997 14.34219235261822
IRIDIUM 176             
1 43923U 19002B   24011.90864051  .00001649  00000+0  25759-3 0  9994
2 43923  86.6101   4.4318 0002505  88.3147 271.8357 14.72253120268701
IRIDIUM 168             
1 43924U 19002C   24011.95314057  .00000043  00000+0  81198-5 0  9994
2 43924  86.3974   4.4351 0002192  88.8451 271.2996 14.34217668261801
IRIDIUM 173             
1 43925U 19002D   24011.94045280  .00000070  00000+0  17979-4 0  9998
2 43925  86.3973   4.3656 0002266  88.2679 271.8776 14.34218717261781
IRIDIUM 169             
1 43926U 19002E   24011.58146890  .00000503  00000+0  15805-3 0  9994
2 43926  86.4209  36.1215 0004220  56.9358 303.2246 14.38604629262617
IRIDIUM 172             
1 43927U 19002F   24011.93410967  .00000450  00000+0  15369-3 0  9999
2 43927  86.3972   4.3735 0002136  90.8262 269.3178 14.34222272261793
IRIDIUM 175             
1 43928U 19002G   24011.90260541  .00001744  00000+0  27251-3 0  9998
2 43928  86.1522 346.4758 0002434  85.2437 274.9058 14.72256139268697
IRIDIUM 171             
1 43929U 19002H   24011.91507928  .00000170  00000+0  53634-4 0  9990
2 43929  86.3981   4.5892 0002083  89.5036 270.6398 14.34219460261789
IRIDIUM 170             
1 43930U 19002J   24011.91474590  .00001651  00000+0  25788-3 0  9993
2 43930  86.6102   4.4337 0002357  87.0154 273.1332 14.72254550268717
IRIDIUM 167             
1 43931U 19002K   24011.90874220  .00000462  00000+0  15772-3 0  9998
2 43931  86.3972   4.3987 0002088  90.5015 269.6420 14.34222161261785
IRIDIUM 181             
1 56726U 23068S   24011.61988040  .00000546  00000+0  15537-3 0  9997
2 56726  86.8607  50.5978 0001543  88.1533 271.9846 14.43578512 34406
IRIDIUM 177             
1 56727U 23068T   24011.57827273  .00002089  00000+0  27140-3 0  9990
2 56727  86.1963  30.1744 0002324  95.1298 265.0188 14.80233387 35069
IRIDIUM 174             
1 56728U 23068U   24011.84320708  .00002124  00000+0  27597-3 0  9998
2 56728  86.1968  30.1395 0002550  94.9234 265.2278 14.80241436 35106
IRIDIUM 178             
1 56729U 23068V   24011.56743040  .00001916  00000+0  24866-3 0  9990
2 56729  86.5763  40.2614 0002278  94.9407 265.2075 14.80234811 35068
IRIDIUM 179             
1 56730U 23068W   24011.56203999  .00001910  00000+0  24798-3 0  9994
2 56730  86.6772  42.4123 0002335  95.0835 265.0653 14.80235160 35069
